[{"OBJECT_NAME":"SITRO-AIS 14","OBJECT_ID":"2024-199T","EPOCH":"2026-03-09T22:54:28.226304","MEAN_MOTION":14.97122201,"ECCENTRICITY":0.00071847,"INCLINATION":97.3313,"RA_OF_ASC_NODE":274.5243,"ARG_OF_PERICENTER":48.7211,"MEAN_ANOMALY":311.463,"EPHEMERIS_TYPE":0,"CLASSIFICATION_TYPE":"U","NORAD_CAT_ID":61752,"ELEMENT_SET_NO":999,"REV_AT_EPOCH":12027,"BSTAR":0.00031190269,"MEAN_MOTION_DOT":3.549e-5,"MEAN_MOTION_DDOT":0},{"OBJECT_NAME":"SHIYAN-30 02","OBJECT_ID":"2025-222B","EPOCH":"2026-03-09T20:48:28.945152","MEAN_MOTION":14.93183187,"ECCENTRICITY":0.00052159,"INCLINATION":34.9961,"RA_OF_ASC_NODE":137.653,"ARG_OF_PERICENTER":257.9316,"MEAN_ANOMALY":102.0805,"EPHEMERIS_TYPE":0,"CLASSIFICATION_TYPE":"U","NORAD_CAT_ID":65852,"ELEMENT_SET_NO":999,"REV_AT_EPOCH":2417,"BSTAR":0.0003172838,"MEAN_MOTION_DOT":3.351e-5,"MEAN_MOTION_DDOT":0}]
